NORAD_CAT_ID,OBJECT_NAME,OBJECT_TYPE,EPOCH,MEAN_MOTION,ECCENTRICITY,INCLINATION,RA_OF_ASC_NODE,ARG_OF_PERICENTER,MEAN_ANOMALY,BSTAR,MEAN_MOTION_DOT,MEAN_MOTION_DDOT,TLE_LINE0,TLE_LINE1,TLE_LINE2,SEMIMAJOR_AXIS,PERIOD,APOGEE,PERIGEE,DECAYED
51138.0,STARLINK-3177,PAYLOAD,2023-12-21 06:29:07,15.0884292,0.0002005,53.2192,332.7457,61.1885,298.9308,0.00074721,0.00011625,0.0,0 STARLINK-3177,1 51138U 22005AL  23355.27022018  .00011625  00000-0  74721-3 0  9996,2 51138  53.2192 332.7457 0002005  61.1885 298.9308 15.08842920107656,6917.871,95.437,541.123,538.349,0.0
51138.0,STARLINK-3177,PAYLOAD,2023-12-22 03:09:07,15.08842465,0.0002132,53.2187,328.8813,61.8354,298.2853,9.5432e-05,1.231e-05,0.0,0 STARLINK-3177,1 51138U 22005AL  23356.13133775  .00001231  00000-0  95432-4 0  9990,2 51138  53.2187 328.8813 0002132  61.8354 298.2853 15.08842465107787,6917.873,95.437,541.213,538.263,0.0
51138.0,STARLINK-3177,PAYLOAD,2023-12-22 04:44:30,15.08844202,0.0002336,53.2179,328.5864,57.9595,302.1624,0.0001636,2.317e-05,0.0,0 STARLINK-3177,1 51138U 22005AL  23356.19757899  .00002317  00000-0  16360-3 0  9993,2 51138  53.2179 328.5864 0002336  57.9595 302.1624 15.08844202106679,6917.868,95.437,541.349,538.117,0.0
51138.0,STARLINK-3177,PAYLOAD,2023-12-23 02:59:54,15.08838836,0.0001825,53.2169,324.4204,80.5966,279.5232,5.0982e-06,-2.07e-06,0.0,0 STARLINK-3177,1 51138U 22005AL  23357.12493973 -.00000207  00000-0  50982-5 0  9994,2 51138  53.2169 324.4204 0001825  80.5966 279.5232 15.08838836107935,6917.884,95.438,541.011,538.486,0.0
51138.0,STARLINK-3177,PAYLOAD,2023-12-23 07:46:03,15.08846487,0.0001974,53.2191,323.5241,80.9854,279.1362,7.3913e-05,8.89e-06,0.0,0 STARLINK-3177,1 51138U 22005AL  23357.32365508  .00000889  00000-0  73913-4 0  9991,2 51138  53.2191 323.5241 0001974  80.9854 279.1362 15.08846487106846,6917.861,95.437,541.091,538.36,0.0
51138.0,STARLINK-3177,PAYLOAD,2023-12-24 02:50:41,15.08845938,0.0001987,53.2179,319.9539,83.1585,276.9633,0.00010956,1.456e-05,0.0,0 STARLINK-3177,1 51138U 22005AL  23358.11853787  .00001456  00000-0  10956-3 0  9998,2 51138  53.2179 319.9539 0001987  83.1585 276.9633 15.08845938108085,6917.862,95.437,541.102,538.353,0.0
51138.0,STARLINK-3177,PAYLOAD,2023-12-24 21:55:19,15.08841238,0.0001999,53.218,316.3931,93.7888,266.3333,6.9585e-05,8.19e-06,0.0,0 STARLINK-3177,1 51138U 22005AL  23358.91342133  .00000819  00000-0  69585-4 0  9999,2 51138  53.2180 316.3931 0001999  93.7888 266.3333 15.08841238107088,6917.877,95.437,541.124,538.359,0.0
51138.0,STARLINK-3177,PAYLOAD,2023-12-25 02:41:28,15.08845299,0.0001798,53.2175,315.4988,103.2281,256.8912,8.4261e-05,1.053e-05,0.0,0 STARLINK-3177,1 51138U 22005AL  23359.11213736  .00001053  00000-0  84261-4 0  9997,2 51138  53.2175 315.4988 0001798 103.2281 256.8912 15.08845299108231,6917.864,95.437,540.973,538.485,0.0
51138.0,STARLINK-3177,PAYLOAD,2023-12-25 04:16:51,15.0884684,0.0001762,53.2176,315.2015,99.2477,260.8715,0.00011368,1.522e-05,0.0,0 STARLINK-3177,1 51138U 22005AL  23359.17837680  .00001522  00000-0  11368-3 0  9991,2 51138  53.2176 315.2015 0001762  99.2477 260.8715 15.08846840107129,6917.859,95.437,540.943,538.506,0.0
51138.0,STARLINK-3177,PAYLOAD,2023-12-25 21:46:06,15.08835657,0.0001938,53.2186,311.9331,101.4302,258.6908,5.2589e-05,5.49e-06,0.0,0 STARLINK-3177,1 51138U 22005AL  23359.90702413  .00000549  00000-0  52589-4 0  9996,2 51138  53.2186 311.9331 0001938 101.4302 258.6908 15.08835657107237,6917.894,95.438,541.099,538.418,0.0
51138.0,STARLINK-3177,PAYLOAD,2023-12-26 04:07:39,15.08841591,0.0001758,53.2175,310.7397,96.0043,264.115,2.9268e-05,1.78e-06,0.0,0 STARLINK-3177,1 51138U 22005AL  23360.17198109  .00000178  00000-0  29268-4 0  9994,2 51138  53.2175 310.7397 0001758  96.0043 264.1150 15.08841591108398,6917.876,95.437,540.957,538.524,0.0
51138.0,STARLINK-3177,PAYLOAD,2023-12-26 05:43:02,15.08844701,0.000176,53.2178,310.4427,94.8858,265.2335,8.4354e-05,1.055e-05,0.0,0 STARLINK-3177,1 51138U 22005AL  23360.23822001  .00001055  00000-0  84354-4 0  9998,2 51138  53.2178 310.4427 0001760  94.8858 265.2335 15.08844701107285,6917.866,95.437,540.949,538.513,0.0
51138.0,STARLINK-3177,PAYLOAD,2023-12-27 03:58:25,15.08872898,0.0001652,53.2175,306.2805,89.8207,270.2974,0.00070943,0.00011031,0.0,0 STARLINK-3177,1 51138U 22005AL  23361.16556755  .00011031  00000-0  70943-3 0  9994,2 51138  53.2175 306.2805 0001652  89.8207 270.2974 15.08872898108540,6917.78,95.435,540.788,538.502,0.0
51138.0,STARLINK-3177,PAYLOAD,2023-12-27 05:33:48,15.08878978,0.0001718,53.2174,305.9829,85.6417,274.4772,0.00092011,0.00014401,0.0,0 STARLINK-3177,1 51138U 22005AL  23361.23180657  .00014401  00000-0  92011-3 0  9990,2 51138  53.2174 305.9829 0001718  85.6417 274.4772 15.08878978107435,6917.761,95.435,540.815,538.438,0.0
51138.0,STARLINK-3177,PAYLOAD,2023-12-27 19:52:16,15.08847535,0.0002273,53.2166,303.3088,81.5036,278.6214,5.6546e-05,6.12e-06,0.0,0 STARLINK-3177,1 51138U 22005AL  23361.82797277  .00000612  00000-0  56546-4 0  9990,2 51138  53.2166 303.3088 0002273  81.5036 278.6214 15.08847535108640,6917.857,95.437,541.295,538.15,0.0
51138.0,STARLINK-3177,PAYLOAD,2023-12-28 03:49:12,15.08837356,0.0001413,53.2172,301.8191,97.3989,262.7164,0.00019739,2.855e-05,0.0,0 STARLINK-3177,1 51138U 22005AL  23362.15917493  .00002855  00000-0  19739-3 0  9994,2 51138  53.2172 301.8191 0001413  97.3989 262.7164 15.08837356108695,6917.888,95.438,540.731,538.776,0.0
51138.0,STARLINK-3177,PAYLOAD,2023-12-28 05:24:35,15.08835728,0.0001406,53.2172,301.522,91.0951,269.0203,0.00026473,3.927e-05,0.0,0 STARLINK-3177,1 51138U 22005AL  23362.22541618  .00003927  00000-0  26473-3 0  9998,2 51138  53.2172 301.5220 0001406  91.0951 269.0203 15.08835728107589,6917.893,95.438,540.731,538.786,0.0
51138.0,STARLINK-3177,PAYLOAD,2023-12-29 03:40:00,15.08834728,0.0001546,53.2171,297.3591,88.0075,272.1094,0.00046763,7.161e-05,0.0,0 STARLINK-3177,1 51138U 22005AL  23363.15278621  .00007161  00000-0  46763-3 0  9990,2 51138  53.2171 297.3591 0001546  88.0075 272.1094 15.08834728108841,6917.897,95.438,540.831,538.692,0.0
51138.0,STARLINK-3177,PAYLOAD,2023-12-29 05:15:23,15.08837914,0.0001467,53.2167,297.061,98.6797,261.4362,0.00054886,8.457e-05,0.0,0 STARLINK-3177,1 51138U 22005AL  23363.21902516  .00008457  00000-0  54886-3 0  9998,2 51138  53.2167 297.0610 0001467  98.6797 261.4362 15.08837914107731,6917.887,95.438,540.767,538.737,0.0
51138.0,STARLINK-3177,PAYLOAD,2023-12-30 05:06:10,15.08856848,0.0001539,53.2165,292.6004,88.9168,271.2,0.00067659,0.00010501,0.0,0 STARLINK-3177,1 51138U 22005AL  23364.21262211  .00010501  00000-0  67659-3 0  9995,2 51138  53.2165 292.6004 0001539  88.9168 271.2000 15.08856848109008,6917.829,95.436,540.759,538.629,0.0
51138.0,STARLINK-3177,PAYLOAD,2023-12-30 22:35:24,15.08850065,0.0002056,53.2175,289.3267,114.6553,245.4653,0.00019963,2.891e-05,0.0,0 STARLINK-3177,1 51138U 22005AL  23364.94125961  .00002891  00000-0  19963-3 0  9993,2 51138  53.2175 289.3267 0002056 114.6553 245.4653 15.08850065107991,6917.85,95.437,541.137,538.292,0.0
51138.0,STARLINK-3177,PAYLOAD,2023-12-31 01:46:11,15.08845154,0.0001619,53.2171,288.7289,102.2332,257.8842,8.1248e-05,1.005e-05,0.0,0 STARLINK-3177,1 51138U 22005AL  23365.07374110  .00001005  00000-0  81248-4 0  9992,2 51138  53.2171 288.7289 0001619 102.2332 257.8842 15.08845154109134,6917.865,95.437,540.85,538.61,0.0
51138.0,STARLINK-3177,PAYLOAD,2023-12-31 22:26:12,15.08840514,0.0001872,53.2172,284.8658,119.9007,240.2172,-2.2555e-05,-6.47e-06,0.0,0 STARLINK-3177,1 51138U 22005AL  23365.93486256 -.00000647  00000-0 -22555-4 0  9991,2 51138  53.2172 284.8658 0001872 119.9007 240.2172 15.08840514108144,6917.879,95.438,541.039,538.449,0.0
51138.0,STARLINK-3177,PAYLOAD,2024-01-01 04:47:44,15.08836043,0.0001807,53.2174,283.677,112.4763,247.6421,-5.5044e-05,-1.164e-05,0.0,0 STARLINK-3177,1 51138U 22005AL  24001.19982538 -.00001164  00000-0 -55044-4 0  9995,2 51138  53.2174 283.6770 0001807 112.4763 247.6421 15.08836043108187,6917.892,95.438,541.008,538.507,0.0
51138.0,STARLINK-3177,PAYLOAD,2024-01-01 17:30:50,15.08836009,0.0001614,53.218,281.2993,105.6905,254.4265,4.6952e-05,4.59e-06,0.0,0 STARLINK-3177,1 51138U 22005AL  24001.72974819  .00000459  00000-0  46952-4 0  9999,2 51138  53.2180 281.2993 0001614 105.6905 254.4265 15.08836009109380,6917.893,95.438,540.874,538.641,0.0
51138.0,STARLINK-3177,PAYLOAD,2024-01-01 22:16:59,15.08842228,0.0001655,53.2177,280.4089,110.3476,249.7694,9.504e-05,1.225e-05,0.0,0 STARLINK-3177,1 51138U 22005AL  24001.92846251  .00001225  00000-0  95040-4 0  9993,2 51138  53.2177 280.4089 0001655 110.3476 249.7694 15.08842228108296,6917.874,95.437,540.883,538.594,0.0
51138.0,STARLINK-3177,PAYLOAD,2024-01-02 03:03:08,15.08843964,0.0001646,53.2178,279.5168,109.2206,250.8964,0.00010623,1.403e-05,0.0,0 STARLINK-3177,1 51138U 22005AL  24002.12718100  .00001403  00000-0  10623-3 0  9998,2 51138  53.2178 279.5168 0001646 109.2206 250.8964 15.08843964109441,6917.868,95.437,540.872,538.595,0.0
51138.0,STARLINK-3177,PAYLOAD,2024-01-02 22:07:46,15.08836017,0.0001739,53.2174,275.9495,118.1466,241.9702,8.4121e-05,1.051e-05,0.0,0 STARLINK-3177,1 51138U 22005AL  24002.92206728  .00001051  00000-0  84121-4 0  9998,2 51138  53.2174 275.9495 0001739 118.1466 241.9702 15.08836017108441,6917.893,95.438,540.961,538.555,0.0
51138.0,STARLINK-3177,PAYLOAD,2024-01-02 23:43:09,15.0883629,0.0001706,53.2179,275.6505,115.7532,244.3637,9.0409e-05,1.151e-05,0.0,0 STARLINK-3177,1 51138U 22005AL  24002.98830709  .00001151  00000-0  90409-4 0  9993,2 51138  53.2179 275.6505 0001706 115.7532 244.3637 15.08836290109578,6917.892,95.438,540.937,538.577,0.0
51138.0,STARLINK-3177,PAYLOAD,2024-01-03 04:29:19,15.0883559,0.0001673,53.2178,274.759,114.2949,245.8218,7.3793e-05,8.86e-06,0.0,0 STARLINK-3177,1 51138U 22005AL  24003.18702849  .00000886  00000-0  73793-4 0  9990,2 51138  53.2178 274.7590 0001673 114.2949 245.8218 15.08835590108482,6917.894,95.438,540.916,538.602,0.0
